CCSDS_OMM_VERS = 2.0
CREATION_DATE  = 
ORIGINATOR     = 

OBJECT_NAME    = ERS-1
OBJECT_ID      = 1991-050A
CENTER_NAME    = EARTH
REF_FRAME      = TEME
TIME_SYSTEM    = UTC
MEAN_ELEMENT_THEORY = SGP/SGP4

EPOCH          = 2026-03-15T12:52:11.994816
MEAN_MOTION    = 14.39453977
ECCENTRICITY   = .00319512
INCLINATION    = 98.7877
RA_OF_ASC_NODE = 92.9178
ARG_OF_PERICENTER = 182.9861
MEAN_ANOMALY   = 177.1140

EPHEMERIS_TYPE = 0
CLASSIFICATION_TYPE = U
NORAD_CAT_ID   = 21574
ELEMENT_SET_NO = 999
REV_AT_EPOCH   = 81657
BSTAR          = .10776731E-3
MEAN_MOTION_DOT = .291E-5
MEAN_MOTION_DDOT = 0

CCSDS_OMM_VERS = 2.0
CREATION_DATE  = 
ORIGINATOR     = 

OBJECT_NAME    = ARIANE 40 R/B
OBJECT_ID      = 1991-050F
CENTER_NAME    = EARTH
REF_FRAME      = TEME
TIME_SYSTEM    = UTC
MEAN_ELEMENT_THEORY = SGP/SGP4

EPOCH          = 2026-03-15T03:46:23.764800
MEAN_MOTION    = 14.42898040
ECCENTRICITY   = .00041809
INCLINATION    = 98.2001
RA_OF_ASC_NODE = 126.1882
ARG_OF_PERICENTER = 69.2472
MEAN_ANOMALY   = 290.9167

EPHEMERIS_TYPE = 0
CLASSIFICATION_TYPE = U
NORAD_CAT_ID   = 21610
ELEMENT_SET_NO = 999
REV_AT_EPOCH   = 81978
BSTAR          = .11186932E-3
MEAN_MOTION_DOT = .332E-5
MEAN_MOTION_DDOT = 0

CCSDS_OMM_VERS = 2.0
CREATION_DATE  = 
ORIGINATOR     = 

OBJECT_NAME    = INTERCOSMOS 25
OBJECT_ID      = 1991-086A
CENTER_NAME    = EARTH
REF_FRAME      = TEME
TIME_SYSTEM    = UTC
MEAN_ELEMENT_THEORY = SGP/SGP4

EPOCH          = 2026-03-15T14:26:05.003520
MEAN_MOTION    = 12.12021171
ECCENTRICITY   = .14868504
INCLINATION    = 82.6044
RA_OF_ASC_NODE = 306.4351
ARG_OF_PERICENTER = 104.1992
MEAN_ANOMALY   = 272.8353

EPHEMERIS_TYPE = 0
CLASSIFICATION_TYPE = U
NORAD_CAT_ID   = 21819
ELEMENT_SET_NO = 999
REV_AT_EPOCH   = 49740
BSTAR          = .35316309E-3
MEAN_MOTION_DOT = .1838E-4
MEAN_MOTION_DDOT = 0

CCSDS_OMM_VERS = 2.0
CREATION_DATE  = 
ORIGINATOR     = 

OBJECT_NAME    = SL-8 R/B
OBJECT_ID      = 1992-008B
CENTER_NAME    = EARTH
REF_FRAME      = TEME
TIME_SYSTEM    = UTC
MEAN_ELEMENT_THEORY = SGP/SGP4

EPOCH          = 2026-03-15T12:54:25.303968
MEAN_MOTION    = 13.75969764
ECCENTRICITY   = .00357616
INCLINATION    = 82.9221
RA_OF_ASC_NODE = 263.4266
ARG_OF_PERICENTER = 117.4884
MEAN_ANOMALY   = 296.8253

EPHEMERIS_TYPE = 0
CLASSIFICATION_TYPE = U
NORAD_CAT_ID   = 21876
ELEMENT_SET_NO = 999
REV_AT_EPOCH   = 71022
BSTAR          = -.3881704E-5
MEAN_MOTION_DOT = .12E-6
MEAN_MOTION_DDOT = 0

CCSDS_OMM_VERS = 2.0
CREATION_DATE  = 
ORIGINATOR     = 

OBJECT_NAME    = SL-8 R/B
OBJECT_ID      = 1992-020B
CENTER_NAME    = EARTH
REF_FRAME      = TEME
TIME_SYSTEM    = UTC
MEAN_ELEMENT_THEORY = SGP/SGP4

EPOCH          = 2026-03-15T14:31:38.186976
MEAN_MOTION    = 13.75549964
ECCENTRICITY   = .00275583
INCLINATION    = 82.9327
RA_OF_ASC_NODE = 149.3699
ARG_OF_PERICENTER = 281.5287
MEAN_ANOMALY   = 244.5366

EPHEMERIS_TYPE = 0
CLASSIFICATION_TYPE = U
NORAD_CAT_ID   = 21938
ELEMENT_SET_NO = 999
REV_AT_EPOCH   = 70194
BSTAR          = .34103548E-4
MEAN_MOTION_DOT = .48E-6
MEAN_MOTION_DDOT = 0

CCSDS_OMM_VERS = 2.0
CREATION_DATE  = 
ORIGINATOR     = 

OBJECT_NAME    = USA 81
OBJECT_ID      = 1992-023A
CENTER_NAME    = EARTH
REF_FRAME      = TEME
TIME_SYSTEM    = UTC
MEAN_ELEMENT_THEORY = SGP/SGP4

EPOCH          = 2026-03-15T14:19:15.542688
MEAN_MOTION    = 14.32369906
ECCENTRICITY   = .00023026
INCLINATION    = 85.0072
RA_OF_ASC_NODE = 128.0331
ARG_OF_PERICENTER = 72.6435
MEAN_ANOMALY   = 287.5009

EPHEMERIS_TYPE = 0
CLASSIFICATION_TYPE = U
NORAD_CAT_ID   = 21949
ELEMENT_SET_NO = 999
REV_AT_EPOCH   = 9563
BSTAR          = .54936557E-4
MEAN_MOTION_DOT = .168E-5
MEAN_MOTION_DDOT = 0

CCSDS_OMM_VERS = 2.0
CREATION_DATE  = 
ORIGINATOR     = 

OBJECT_NAME    = COSMOS 2219
OBJECT_ID      = 1992-076A
CENTER_NAME    = EARTH
REF_FRAME      = TEME
TIME_SYSTEM    = UTC
MEAN_ELEMENT_THEORY = SGP/SGP4

EPOCH          = 2026-03-15T12:48:34.262496
MEAN_MOTION    = 14.14093704
ECCENTRICITY   = .0018641
INCLINATION    = 71.0641
RA_OF_ASC_NODE = 5.8522
ARG_OF_PERICENTER = 198.9240
MEAN_ANOMALY   = 161.1192

EPHEMERIS_TYPE = 0
CLASSIFICATION_TYPE = U
NORAD_CAT_ID   = 22219
ELEMENT_SET_NO = 999
REV_AT_EPOCH   = 71920
BSTAR          = .269908E-5
MEAN_MOTION_DOT = -.42E-6
MEAN_MOTION_DDOT = 0

CCSDS_OMM_VERS = 2.0
CREATION_DATE  = 
ORIGINATOR     = 

OBJECT_NAME    = SL-16 R/B
OBJECT_ID      = 1992-076B
CENTER_NAME    = EARTH
REF_FRAME      = TEME
TIME_SYSTEM    = UTC
MEAN_ELEMENT_THEORY = SGP/SGP4

EPOCH          = 2026-03-15T13:07:14.721024
MEAN_MOTION    = 14.16859164
ECCENTRICITY   = .00105382
INCLINATION    = 71.0006
RA_OF_ASC_NODE = 176.0370
ARG_OF_PERICENTER = 85.5435
MEAN_ANOMALY   = 286.3604

EPHEMERIS_TYPE = 0
CLASSIFICATION_TYPE = U
NORAD_CAT_ID   = 22220
ELEMENT_SET_NO = 999
REV_AT_EPOCH   = 72266
BSTAR          = .3589314E-4
MEAN_MOTION_DOT = .24E-6
MEAN_MOTION_DDOT = 0

CCSDS_OMM_VERS = 2.0
CREATION_DATE  = 
ORIGINATOR     = 

OBJECT_NAME    = COSMOS 2221
OBJECT_ID      = 1992-080A
CENTER_NAME    = EARTH
REF_FRAME      = TEME
TIME_SYSTEM    = UTC
MEAN_ELEMENT_THEORY = SGP/SGP4

EPOCH          = 2026-03-15T12:32:29.602176
MEAN_MOTION    = 14.96225096
ECCENTRICITY   = .00145533
INCLINATION    = 82.5004
RA_OF_ASC_NODE = 273.4925
ARG_OF_PERICENTER = 167.5535
MEAN_ANOMALY   = 192.6049

EPHEMERIS_TYPE = 0
CLASSIFICATION_TYPE = U
NORAD_CAT_ID   = 22236
ELEMENT_SET_NO = 999
REV_AT_EPOCH   = 78166
BSTAR          = .13546211E-3
MEAN_MOTION_DOT = .1556E-4
MEAN_MOTION_DDOT = 0

CCSDS_OMM_VERS = 2.0
CREATION_DATE  = 
ORIGINATOR     = 

OBJECT_NAME    = SL-16 R/B
OBJECT_ID      = 1992-093B
CENTER_NAME    = EARTH
REF_FRAME      = TEME
TIME_SYSTEM    = UTC
MEAN_ELEMENT_THEORY = SGP/SGP4

EPOCH          = 2026-03-15T04:20:47.472864
MEAN_MOTION    = 14.15447045
ECCENTRICITY   = .00062955
INCLINATION    = 71.0240
RA_OF_ASC_NODE = 352.7390
ARG_OF_PERICENTER = 288.1062
MEAN_ANOMALY   = 71.9375

EPHEMERIS_TYPE = 0
CLASSIFICATION_TYPE = U
NORAD_CAT_ID   = 22285
ELEMENT_SET_NO = 999
REV_AT_EPOCH   = 71393
BSTAR          = .13963569E-4
MEAN_MOTION_DOT = -.2E-6
MEAN_MOTION_DDOT = 0

CCSDS_OMM_VERS = 2.0
CREATION_DATE  = 
ORIGINATOR     = 

OBJECT_NAME    = COSMOS 2228
OBJECT_ID      = 1992-094A
CENTER_NAME    = EARTH
REF_FRAME      = TEME
TIME_SYSTEM    = UTC
MEAN_ELEMENT_THEORY = SGP/SGP4

EPOCH          = 2026-03-15T14:26:42.285984
MEAN_MOTION    = 14.97222419
ECCENTRICITY   = .00165832
INCLINATION    = 82.5160
RA_OF_ASC_NODE = 231.6488
ARG_OF_PERICENTER = 283.0607
MEAN_ANOMALY   = 76.8765

EPHEMERIS_TYPE = 0
CLASSIFICATION_TYPE = U
NORAD_CAT_ID   = 22286
ELEMENT_SET_NO = 999
REV_AT_EPOCH   = 77694
BSTAR          = .1700343E-3
MEAN_MOTION_DOT = .1998E-4
MEAN_MOTION_DDOT = 0

CCSDS_OMM_VERS = 2.0
CREATION_DATE  = 
ORIGINATOR     = 

OBJECT_NAME    = SL-16 R/B
OBJECT_ID      = 1993-016B
CENTER_NAME    = EARTH
REF_FRAME      = TEME
TIME_SYSTEM    = UTC
MEAN_ELEMENT_THEORY = SGP/SGP4

EPOCH          = 2026-03-15T15:30:24.818976
MEAN_MOTION    = 14.15308992
ECCENTRICITY   = .00121876
INCLINATION    = 71.0083
RA_OF_ASC_NODE = 202.6712
ARG_OF_PERICENTER = 306.3512
MEAN_ANOMALY   = 53.6485

EPHEMERIS_TYPE = 0
CLASSIFICATION_TYPE = U
NORAD_CAT_ID   = 22566
ELEMENT_SET_NO = 999
REV_AT_EPOCH   = 70301
BSTAR          = -.62587638E-4
MEAN_MOTION_DOT = -.17E-5
MEAN_MOTION_DDOT = 0

