ERS-1                   
1 21574U 91050A   26074.53624994  .00000291  00000+0  10777-3 0  9991
2 21574  98.7877  92.9178 0031951 182.9861 177.1140 14.39453977816577
ARIANE 40 R/B           
1 21610U 91050F   26074.15721950  .00000332  00000+0  11187-3 0  9992
2 21610  98.2001 126.1882 0004180  69.2472 290.9167 14.42898040819780
INTERCOSMOS 25          
1 21819U 91086A   26074.60144680  .00001838  00000+0  35316-3 0  9993
2 21819  82.6044 306.4351 1486850 104.1992 272.8353 12.12021171497409
SL-8 R/B                
1 21876U 92008B   26074.53779287  .00000012  00000+0 -38817-5 0  9995
2 21876  82.9221 263.4266 0035761 117.4884 296.8253 13.75969764710228
SL-8 R/B                
1 21938U 92020B   26074.60530309  .00000048  00000+0  34104-4 0  9998
2 21938  82.9327 149.3699 0027558 281.5287 244.5366 13.75549964701941
USA 81                  
1 21949U 92023A   26074.59670767  .00000168  00000+0  54937-4 0  9993
2 21949  85.0072 128.0331 0002302  72.6435 287.5009 14.32369906 95638
COSMOS 2219             
1 22219U 92076A   26074.53372989 -.00000042  00000+0  26991-5 0  9993
2 22219  71.0641   5.8522 0018641 198.9240 161.1192 14.14093704719205
SL-16 R/B               
1 22220U 92076B   26074.54669816  .00000024  00000+0  35893-4 0  9993
2 22220  71.0006 176.0370 0010538  85.5435 286.3604 14.16859164722662
COSMOS 2221             
1 22236U 92080A   26074.52256484  .00001556  00000+0  13546-3 0  9997
2 22236  82.5004 273.4925 0014553 167.5535 192.6049 14.96225096781661
SL-16 R/B               
1 22285U 92093B   26074.18110501 -.00000020  00000+0  13964-4 0  9997
2 22285  71.0240 352.7390 0006295 288.1062  71.9375 14.15447045713933
COSMOS 2228             
1 22286U 92094A   26074.60187831  .00001998  00000+0  17003-3 0  9997
2 22286  82.5160 231.6488 0016583 283.0607  76.8765 14.97222419776948
SL-16 R/B               
1 22566U 93016B   26074.64612059 -.00000170  00000+0 -62588-4 0  9994
2 22566  71.0083 202.6712 0012187 306.3512  53.6485 14.15308992703015
